ONEWEB-0670             
1 55829U 23029AK  24109.87087427  .00000037  00000+0  65280-4 0  9998
2 55829  87.8920  86.7838 0001471  73.5280 286.6012 13.14501660 56422
ONEWEB-0671             
1 55830U 23029AL  24109.50743671  .00000049  00000+0  89784-4 0  9998
2 55830  87.9101 102.1480 0001649  84.3222 275.8099 13.19725701 54742
ONEWEB-0672             
1 55831U 23029AM  24109.85938556  .00000069  00000+0  13661-3 0  9997
2 55831  87.9179  71.4850 0002335  83.3286 276.8113 13.20770233 57630
ONEWEB-0673             
1 55832U 23029AN  24109.48374382  .00000122  00000+0  27272-3 0  9991
2 55832  87.9099 102.1205 0001665  87.4965 272.6358 13.19726156 54749
ONEWEB-0674             
1 55833U 23029AP  24109.45856235  .00000269  00000+0  69020-3 0  9990
2 55833  87.8914  86.8751 0001618  68.3770 291.7532 13.14500939 55661
ONEWEB-0675             
1 55834U 23029AQ  24109.49953957  .00000006  00000+0 -17649-4 0  9995
2 55834  87.9107 102.1478 0002332  96.5603 263.5795 13.19724101 54769
ONEWEB-0720             
1 55835U 23029AR  24109.49164093  .00000215  00000+0  50353-3 0  9990
2 55835  87.9104 102.1505 0001548 102.2791 257.8515 13.19724462 54686
ONEWEB-0537             
1 56046U 23043A   24109.81416843  .00000045  00000+0  85035-4 0  9997
2 56046  87.9148  25.8814 0002179  84.0036 276.1343 13.16592330 56008
